{
    "links": {
        "self": "http://www.neowsapp.com/rest/v1/neo/3760649?api_key=iIulBulltgU6a56xZRHN4H3l9WmuAYTsLGpBGhQ2"
    },
    "id": "3760649",
    "neo_reference_id": "3760649",
    "name": "(2016 TY18)",
    "designation": "2016 TY18",
    "nasa_jpl_url": "http://ssd.jpl.nasa.gov/sbdb.cgi?sstr=3760649",
    "absolute_magnitude_h": 23.8,
    "estimated_diameter": {
        "kilometers": {
            "estimated_diameter_min": 0.046190746,
            "estimated_diameter_max": 0.1032856481
        },
        "meters": {
            "estimated_diameter_min": 46.1907460282,
            "estimated_diameter_max": 103.2856480504
        },
        "miles": {
            "estimated_diameter_min": 0.0287015901,
            "estimated_diameter_max": 0.0641787064
        },
        "feet": {
            "estimated_diameter_min": 151.544447199,
            "estimated_diameter_max": 338.8636855496
        }
    },
    "is_potentially_hazardous_asteroid": false,
    "close_approach_data": [
        {
            "close_approach_date": "2016-10-16",
            "close_approach_date_full": "2016-Oct-16 22:54",
            "epoch_date_close_approach": 1476658440000,
            "relative_velocity": {
                "kilometers_per_second": "7.1370156484",
                "kilometers_per_hour": "25693.2563343853",
                "miles_per_hour": "15964.7903039962"
            },
            "miss_distance": {
                "astronomical": "0.078397375",
                "lunar": "30.496578875",
                "kilometers": "11728080.31359125",
                "miles": "7287491.18140925"
            },
            "orbiting_body": "Earth"
        },
        {
            "close_approach_date": "2023-08-20",
            "close_approach_date_full": "2023-Aug-20 09:48",
            "epoch_date_close_approach": 1692524880000,
            "relative_velocity": {
                "kilometers_per_second": "18.6359030819",
                "kilometers_per_hour": "67089.2510946643",
                "miles_per_hour": "41686.6516037929"
            },
            "miss_distance": {
                "astronomical": "0.461005792",
                "lunar": "179.331253088",
                "kilometers": "68965484.54086304",
                "miles": "42853164.966028352"
            },
            "orbiting_body": "Earth"
        }
    ],
    "orbital_data": {
        "orbit_id": "10",
        "orbit_determination_date": "2017-04-06 08:23:11",
        "first_observation_date": "2016-09-25",
        "last_observation_date": "2016-11-27",
        "data_arc_in_days": 63,
        "observations_used": 71,
        "orbit_uncertainty": "6",
        "minimum_orbit_intersection": ".0753212",
        "jupiter_tisserand_invariant": "3.393",
        "epoch_osculation": "2459000.5",
        "eccentricity": ".532009420136726",
        "semi_major_axis": "2.287482670751961",
        "inclination": "5.240901551730957",
        "ascending_node_longitude": "208.808508586183",
        "orbital_period": "1263.674278966202",
        "perihelion_distance": "1.070520341512401",
        "perihelion_argument": "166.374310374797",
        "aphelion_distance": "3.504444999991521",
        "perihelion_time": "2458935.233874040261",
        "mean_anomaly": "18.59324490226034",
        "mean_motion": ".2848835384182322",
        "equinox": "J2000",
        "orbit_class": {
            "orbit_class_type": "AMO",
            "orbit_class_description": "Near-Earth asteroid orbits similar to that of 1221 Amor",
            "orbit_class_range": "1.017 AU < q (perihelion) < 1.3 AU"
        }
    },
    "is_sentry_object": false
}